SAUDISAT 1C             
1 27607U 02058C   19068.15469437 -.00000031  00000-0  16513-4 0  9995
2 27607  64.5566   0.0273 0082303 275.8491  83.3234 14.75525311872059
SAUDISAT 2              
1 28371U 04025F   19068.66471436  .00000039  00000-0  19784-4 0  9998
2 28371  98.2201  18.9957 0025683 188.6429 171.4328 14.54333127779479
SAUDISAT 3              
1 31118U 07012B   19068.77573221 -.00000032  00000-0  24200-5 0  9991
2 31118  97.8006  40.9574 0016406  52.5515 307.7199 14.69124822637590
PISAT                   
1 41784U 16059B   19068.61189508  .00000070  00000-0  22785-4 0  9992
2 41784  98.0822 130.9761 0031386 342.3632  17.6478 14.63407625130775
FLYING LAPTOP           
1 42831U 17042G   19068.19271903  .00000267  00000-0  32372-4 0  9994
2 42831  97.5768 325.2788 0015217  42.7085 317.5313 14.90962352 89819
